DELTA 1 R/B             
1 20323U 89089B   25310.21770619  .00000521  00000+0  13772-3 0  9998
2 20323  97.0789 172.2377 0069895 151.6224 208.8809 14.50525189877837
ARIANE 40 R/B           
1 20443U 90005H   25310.18456410  .00000473  00000+0  16440-3 0  9998
2 20443  98.3293   9.3869 0009568 210.5362 149.5270 14.39754342875034
DELTA 2 R/B(1)          
1 20453U 90008B   25310.14035334  .00039523  00000+0  69759-3 0  9995
2 20453  35.6083 256.2656 0118557 205.7800 153.6989 15.41800529906979
COSMOS 2058             
1 20465U 90010A   25310.11831204  .00004597  00000+0  28055-3 0  9995
2 20465  82.4671 169.0550 0011501  42.2956 317.9158 15.10048072923588
SL-14 R/B               
1 20466U 90010B   25310.25382363  .00000680  00000+0  79803-4 0  9995
2 20466  82.5051  23.3077 0019522 351.1358   8.9509 14.83420281910181
SL-14 R/B               
1 20511U 90018B   25310.15293068  .00000536  00000+0  64471-4 0  9991
2 20511  82.5213 338.5651 0017517 135.0312 225.2325 14.81993527904282
HST                     
1 20580U 90037B   25310.27443333  .00009080  00000+0  32137-3 0  9999
2 20580  28.4659 160.5613 0001672 176.9772 183.0833 15.27337496754412
SL-16 R/B               
1 20625U 90046B   25310.05636091 -.00000137  00000+0 -46226-4 0  9991
2 20625  70.9989 197.5588 0012402 139.9567 220.2472 14.14992113830905
COSMOS 2084             
1 20663U 90055A   25309.68844035  .00004206  00000+0  30717-3 0  9995
2 20663  62.7923  38.2084 0037849 170.2662 189.9180 15.04677149917656
SL-6 R/B(2)             
1 20666U 90055D   25310.30675143  .00003347  00000+0  26307-3 0  9996
2 20666  62.7836 313.1847 0010706 276.5286  83.4594 15.02799332919644
SL-8 R/B                
1 20775U 90078B   25310.20846548  .00018895  00000+0  58329-3 0  9993
2 20775  82.9077   1.9489 0382475  68.0157 296.1234 14.83977740790950
SL-8 R/B                
1 21088U 91006B   25310.29656529  .00000148  00000+0  13286-3 0  9995
2 21088  82.9405 261.8216 0023166  24.1924  84.2145 13.77482013747081
