CCSDS_OMM_VERS = 2.0
CREATION_DATE  = 
ORIGINATOR     = 

OBJECT_NAME    = DELTA 1 R/B
OBJECT_ID      = 1989-089B
CENTER_NAME    = EARTH
REF_FRAME      = TEME
TIME_SYSTEM    = UTC
MEAN_ELEMENT_THEORY = SGP/SGP4

EPOCH          = 2025-11-06T05:13:29.814816
MEAN_MOTION    = 14.50525189
ECCENTRICITY   = .00698954
INCLINATION    = 97.0789
RA_OF_ASC_NODE = 172.2377
ARG_OF_PERICENTER = 151.6224
MEAN_ANOMALY   = 208.8809

EPHEMERIS_TYPE = 0
CLASSIFICATION_TYPE = U
NORAD_CAT_ID   = 20323
ELEMENT_SET_NO = 999
REV_AT_EPOCH   = 87783
BSTAR          = .13772425E-3
MEAN_MOTION_DOT = .521E-5
MEAN_MOTION_DDOT = 0

CCSDS_OMM_VERS = 2.0
CREATION_DATE  = 
ORIGINATOR     = 

OBJECT_NAME    = ARIANE 40 R/B
OBJECT_ID      = 1990-005H
CENTER_NAME    = EARTH
REF_FRAME      = TEME
TIME_SYSTEM    = UTC
MEAN_ELEMENT_THEORY = SGP/SGP4

EPOCH          = 2025-11-06T04:25:46.338240
MEAN_MOTION    = 14.39754342
ECCENTRICITY   = .00095689
INCLINATION    = 98.3293
RA_OF_ASC_NODE = 9.3869
ARG_OF_PERICENTER = 210.5362
MEAN_ANOMALY   = 149.5270

EPHEMERIS_TYPE = 0
CLASSIFICATION_TYPE = U
NORAD_CAT_ID   = 20443
ELEMENT_SET_NO = 999
REV_AT_EPOCH   = 87503
BSTAR          = .16440045E-3
MEAN_MOTION_DOT = .473E-5
MEAN_MOTION_DDOT = 0

CCSDS_OMM_VERS = 2.0
CREATION_DATE  = 
ORIGINATOR     = 

OBJECT_NAME    = DELTA 2 R/B(1)
OBJECT_ID      = 1990-008B
CENTER_NAME    = EARTH
REF_FRAME      = TEME
TIME_SYSTEM    = UTC
MEAN_ELEMENT_THEORY = SGP/SGP4

EPOCH          = 2025-11-06T03:22:06.528576
MEAN_MOTION    = 15.41800529
ECCENTRICITY   = .01185571
INCLINATION    = 35.6083
RA_OF_ASC_NODE = 256.2656
ARG_OF_PERICENTER = 205.7800
MEAN_ANOMALY   = 153.6989

EPHEMERIS_TYPE = 0
CLASSIFICATION_TYPE = U
NORAD_CAT_ID   = 20453
ELEMENT_SET_NO = 999
REV_AT_EPOCH   = 90697
BSTAR          = .69758512E-3
MEAN_MOTION_DOT = .39523E-3
MEAN_MOTION_DDOT = 0

CCSDS_OMM_VERS = 2.0
CREATION_DATE  = 
ORIGINATOR     = 

OBJECT_NAME    = COSMOS 2058
OBJECT_ID      = 1990-010A
CENTER_NAME    = EARTH
REF_FRAME      = TEME
TIME_SYSTEM    = UTC
MEAN_ELEMENT_THEORY = SGP/SGP4

EPOCH          = 2025-11-06T02:50:22.160256
MEAN_MOTION    = 15.10048072
ECCENTRICITY   = .00115011
INCLINATION    = 82.4671
RA_OF_ASC_NODE = 169.0550
ARG_OF_PERICENTER = 42.2956
MEAN_ANOMALY   = 317.9158

EPHEMERIS_TYPE = 0
CLASSIFICATION_TYPE = U
NORAD_CAT_ID   = 20465
ELEMENT_SET_NO = 999
REV_AT_EPOCH   = 92358
BSTAR          = .28055387E-3
MEAN_MOTION_DOT = .4597E-4
MEAN_MOTION_DDOT = 0

CCSDS_OMM_VERS = 2.0
CREATION_DATE  = 
ORIGINATOR     = 

OBJECT_NAME    = SL-14 R/B
OBJECT_ID      = 1990-010B
CENTER_NAME    = EARTH
REF_FRAME      = TEME
TIME_SYSTEM    = UTC
MEAN_ELEMENT_THEORY = SGP/SGP4

EPOCH          = 2025-11-06T06:05:30.361632
MEAN_MOTION    = 14.83420281
ECCENTRICITY   = .00195227
INCLINATION    = 82.5051
RA_OF_ASC_NODE = 23.3077
ARG_OF_PERICENTER = 351.1358
MEAN_ANOMALY   = 8.9509

EPHEMERIS_TYPE = 0
CLASSIFICATION_TYPE = U
NORAD_CAT_ID   = 20466
ELEMENT_SET_NO = 999
REV_AT_EPOCH   = 91018
BSTAR          = .7980335E-4
MEAN_MOTION_DOT = .68E-5
MEAN_MOTION_DDOT = 0

CCSDS_OMM_VERS = 2.0
CREATION_DATE  = 
ORIGINATOR     = 

OBJECT_NAME    = SL-14 R/B
OBJECT_ID      = 1990-018B
CENTER_NAME    = EARTH
REF_FRAME      = TEME
TIME_SYSTEM    = UTC
MEAN_ELEMENT_THEORY = SGP/SGP4

EPOCH          = 2025-11-06T03:40:13.210752
MEAN_MOTION    = 14.81993527
ECCENTRICITY   = .00175174
INCLINATION    = 82.5213
RA_OF_ASC_NODE = 338.5651
ARG_OF_PERICENTER = 135.0312
MEAN_ANOMALY   = 225.2325

EPHEMERIS_TYPE = 0
CLASSIFICATION_TYPE = U
NORAD_CAT_ID   = 20511
ELEMENT_SET_NO = 999
REV_AT_EPOCH   = 90428
BSTAR          = .64471369E-4
MEAN_MOTION_DOT = .536E-5
MEAN_MOTION_DDOT = 0

CCSDS_OMM_VERS = 2.0
CREATION_DATE  = 
ORIGINATOR     = 

OBJECT_NAME    = HST
OBJECT_ID      = 1990-037B
CENTER_NAME    = EARTH
REF_FRAME      = TEME
TIME_SYSTEM    = UTC
MEAN_ELEMENT_THEORY = SGP/SGP4

EPOCH          = 2025-11-06T06:35:11.039712
MEAN_MOTION    = 15.27337496
ECCENTRICITY   = .00016728
INCLINATION    = 28.4659
RA_OF_ASC_NODE = 160.5613
ARG_OF_PERICENTER = 176.9772
MEAN_ANOMALY   = 183.0833

EPHEMERIS_TYPE = 0
CLASSIFICATION_TYPE = U
NORAD_CAT_ID   = 20580
ELEMENT_SET_NO = 999
REV_AT_EPOCH   = 75441
BSTAR          = .32137307E-3
MEAN_MOTION_DOT = .908E-4
MEAN_MOTION_DDOT = 0

CCSDS_OMM_VERS = 2.0
CREATION_DATE  = 
ORIGINATOR     = 

OBJECT_NAME    = SL-16 R/B
OBJECT_ID      = 1990-046B
CENTER_NAME    = EARTH
REF_FRAME      = TEME
TIME_SYSTEM    = UTC
MEAN_ELEMENT_THEORY = SGP/SGP4

EPOCH          = 2025-11-06T01:21:09.582624
MEAN_MOTION    = 14.14992113
ECCENTRICITY   = .00124027
INCLINATION    = 70.9989
RA_OF_ASC_NODE = 197.5588
ARG_OF_PERICENTER = 139.9567
MEAN_ANOMALY   = 220.2472

EPHEMERIS_TYPE = 0
CLASSIFICATION_TYPE = U
NORAD_CAT_ID   = 20625
ELEMENT_SET_NO = 999
REV_AT_EPOCH   = 83090
BSTAR          = -.46225817E-4
MEAN_MOTION_DOT = -.137E-5
MEAN_MOTION_DDOT = 0

CCSDS_OMM_VERS = 2.0
CREATION_DATE  = 
ORIGINATOR     = 

OBJECT_NAME    = COSMOS 2084
OBJECT_ID      = 1990-055A
CENTER_NAME    = EARTH
REF_FRAME      = TEME
TIME_SYSTEM    = UTC
MEAN_ELEMENT_THEORY = SGP/SGP4

EPOCH          = 2025-11-05T16:31:21.246240
MEAN_MOTION    = 15.04677149
ECCENTRICITY   = .00378493
INCLINATION    = 62.7923
RA_OF_ASC_NODE = 38.2084
ARG_OF_PERICENTER = 170.2662
MEAN_ANOMALY   = 189.9180

EPHEMERIS_TYPE = 0
CLASSIFICATION_TYPE = U
NORAD_CAT_ID   = 20663
ELEMENT_SET_NO = 999
REV_AT_EPOCH   = 91765
BSTAR          = .3071728E-3
MEAN_MOTION_DOT = .4206E-4
MEAN_MOTION_DDOT = 0

CCSDS_OMM_VERS = 2.0
CREATION_DATE  = 
ORIGINATOR     = 

OBJECT_NAME    = SL-6 R/B(2)
OBJECT_ID      = 1990-055D
CENTER_NAME    = EARTH
REF_FRAME      = TEME
TIME_SYSTEM    = UTC
MEAN_ELEMENT_THEORY = SGP/SGP4

EPOCH          = 2025-11-06T07:21:43.323552
MEAN_MOTION    = 15.02799332
ECCENTRICITY   = .00107069
INCLINATION    = 62.7836
RA_OF_ASC_NODE = 313.1847
ARG_OF_PERICENTER = 276.5286
MEAN_ANOMALY   = 83.4594

EPHEMERIS_TYPE = 0
CLASSIFICATION_TYPE = U
NORAD_CAT_ID   = 20666
ELEMENT_SET_NO = 999
REV_AT_EPOCH   = 91964
BSTAR          = .26306916E-3
MEAN_MOTION_DOT = .3347E-4
MEAN_MOTION_DDOT = 0

CCSDS_OMM_VERS = 2.0
CREATION_DATE  = 
ORIGINATOR     = 

OBJECT_NAME    = SL-8 R/B
OBJECT_ID      = 1990-078B
CENTER_NAME    = EARTH
REF_FRAME      = TEME
TIME_SYSTEM    = UTC
MEAN_ELEMENT_THEORY = SGP/SGP4

EPOCH          = 2025-11-06T05:00:11.417472
MEAN_MOTION    = 14.83977740
ECCENTRICITY   = .03824758
INCLINATION    = 82.9077
RA_OF_ASC_NODE = 1.9489
ARG_OF_PERICENTER = 68.0157
MEAN_ANOMALY   = 296.1234

EPHEMERIS_TYPE = 0
CLASSIFICATION_TYPE = U
NORAD_CAT_ID   = 20775
ELEMENT_SET_NO = 999
REV_AT_EPOCH   = 79095
BSTAR          = .5832872E-3
MEAN_MOTION_DOT = .18895E-3
MEAN_MOTION_DDOT = 0

CCSDS_OMM_VERS = 2.0
CREATION_DATE  = 
ORIGINATOR     = 

OBJECT_NAME    = SL-8 R/B
OBJECT_ID      = 1991-006B
CENTER_NAME    = EARTH
REF_FRAME      = TEME
TIME_SYSTEM    = UTC
MEAN_ELEMENT_THEORY = SGP/SGP4

EPOCH          = 2025-11-06T07:07:03.241056
MEAN_MOTION    = 13.77482013
ECCENTRICITY   = .00231665
INCLINATION    = 82.9405
RA_OF_ASC_NODE = 261.8216
ARG_OF_PERICENTER = 24.1924
MEAN_ANOMALY   = 84.2145

EPHEMERIS_TYPE = 0
CLASSIFICATION_TYPE = U
NORAD_CAT_ID   = 21088
ELEMENT_SET_NO = 999
REV_AT_EPOCH   = 74708
BSTAR          = .13286133E-3
MEAN_MOTION_DOT = .148E-5
MEAN_MOTION_DDOT = 0

